CCSDS_OMM_VERS = 2.0
CREATION_DATE  = 
ORIGINATOR     = 

OBJECT_NAME    = STARLINK-35524
OBJECT_ID      = 2025-225E
CENTER_NAME    = EARTH
REF_FRAME      = TEME
TIME_SYSTEM    = UTC
MEAN_ELEMENT_THEORY = SGP/SGP4

EPOCH          = 2025-10-31T20:00:03.000384
MEAN_MOTION    = 15.55216509
ECCENTRICITY   = .000071
INCLINATION    = 53.1597
RA_OF_ASC_NODE = 46.7412
ARG_OF_PERICENTER = 69.7327
MEAN_ANOMALY   = 303.0493

EPHEMERIS_TYPE = 0
CLASSIFICATION_TYPE = U
NORAD_CAT_ID   = 65914
ELEMENT_SET_NO = 999
REV_AT_EPOCH   = 469
BSTAR          = -.33023E-1
MEAN_MOTION_DOT = -.202944E-1
MEAN_MOTION_DDOT = 0

CCSDS_OMM_VERS = 2.0
CREATION_DATE  = 
ORIGINATOR     = 

OBJECT_NAME    = STARLINK-35539
OBJECT_ID      = 2025-225F
CENTER_NAME    = EARTH
REF_FRAME      = TEME
TIME_SYSTEM    = UTC
MEAN_ELEMENT_THEORY = SGP/SGP4

EPOCH          = 2025-10-31T20:00:03.000384
MEAN_MOTION    = 15.44901484
ECCENTRICITY   = .0001431
INCLINATION    = 53.1593
RA_OF_ASC_NODE = 47.1295
ARG_OF_PERICENTER = 71.2613
MEAN_ANOMALY   = 108.8150

EPHEMERIS_TYPE = 0
CLASSIFICATION_TYPE = U
NORAD_CAT_ID   = 65915
ELEMENT_SET_NO = 999
REV_AT_EPOCH   = 463
BSTAR          = -.56254E-1
MEAN_MOTION_DOT = -.2391045E-1
MEAN_MOTION_DDOT = 0

CCSDS_OMM_VERS = 2.0
CREATION_DATE  = 
ORIGINATOR     = 

OBJECT_NAME    = STARLINK-35521
OBJECT_ID      = 2025-225G
CENTER_NAME    = EARTH
REF_FRAME      = TEME
TIME_SYSTEM    = UTC
MEAN_ELEMENT_THEORY = SGP/SGP4

EPOCH          = 2025-10-31T20:00:03.000384
MEAN_MOTION    = 15.55218357
ECCENTRICITY   = .0000795
INCLINATION    = 53.1602
RA_OF_ASC_NODE = 46.7324
ARG_OF_PERICENTER = 70.0371
MEAN_ANOMALY   = 306.5780

EPHEMERIS_TYPE = 0
CLASSIFICATION_TYPE = U
NORAD_CAT_ID   = 65916
ELEMENT_SET_NO = 999
REV_AT_EPOCH   = 469
BSTAR          = -.33065E-1
MEAN_MOTION_DOT = -.2031942E-1
MEAN_MOTION_DDOT = 0

CCSDS_OMM_VERS = 2.0
CREATION_DATE  = 
ORIGINATOR     = 

OBJECT_NAME    = STARLINK-35478
OBJECT_ID      = 2025-225H
CENTER_NAME    = EARTH
REF_FRAME      = TEME
TIME_SYSTEM    = UTC
MEAN_ELEMENT_THEORY = SGP/SGP4

EPOCH          = 2025-10-31T20:00:03.000384
MEAN_MOTION    = 15.55226582
ECCENTRICITY   = .0000893
INCLINATION    = 53.1601
RA_OF_ASC_NODE = 46.7242
ARG_OF_PERICENTER = 64.4538
MEAN_ANOMALY   = 315.9916

EPHEMERIS_TYPE = 0
CLASSIFICATION_TYPE = U
NORAD_CAT_ID   = 65917
ELEMENT_SET_NO = 999
REV_AT_EPOCH   = 463
BSTAR          = -.33354E-1
MEAN_MOTION_DOT = -.2048427E-1
MEAN_MOTION_DDOT = 0

CCSDS_OMM_VERS = 2.0
CREATION_DATE  = 
ORIGINATOR     = 

OBJECT_NAME    = STARLINK-35516
OBJECT_ID      = 2025-225J
CENTER_NAME    = EARTH
REF_FRAME      = TEME
TIME_SYSTEM    = UTC
MEAN_ELEMENT_THEORY = SGP/SGP4

EPOCH          = 2025-10-31T20:00:03.000384
MEAN_MOTION    = 15.55224638
ECCENTRICITY   = .0000819
INCLINATION    = 53.1598
RA_OF_ASC_NODE = 46.7283
ARG_OF_PERICENTER = 69.3324
MEAN_ANOMALY   = 309.1984

EPHEMERIS_TYPE = 0
CLASSIFICATION_TYPE = U
NORAD_CAT_ID   = 65918
ELEMENT_SET_NO = 999
REV_AT_EPOCH   = 469
BSTAR          = -.3332E-1
MEAN_MOTION_DOT = -.2046381E-1
MEAN_MOTION_DDOT = 0

CCSDS_OMM_VERS = 2.0
CREATION_DATE  = 
ORIGINATOR     = 

OBJECT_NAME    = STARLINK-35519
OBJECT_ID      = 2025-225K
CENTER_NAME    = EARTH
REF_FRAME      = TEME
TIME_SYSTEM    = UTC
MEAN_ELEMENT_THEORY = SGP/SGP4

EPOCH          = 2025-10-31T20:00:03.000384
MEAN_MOTION    = 15.55222660
ECCENTRICITY   = .0000862
INCLINATION    = 53.1593
RA_OF_ASC_NODE = 46.7206
ARG_OF_PERICENTER = 68.4010
MEAN_ANOMALY   = 313.9639

EPHEMERIS_TYPE = 0
CLASSIFICATION_TYPE = U
NORAD_CAT_ID   = 65919
ELEMENT_SET_NO = 999
REV_AT_EPOCH   = 469
BSTAR          = -.33242E-1
MEAN_MOTION_DOT = -.2041971E-1
MEAN_MOTION_DDOT = 0

CCSDS_OMM_VERS = 2.0
CREATION_DATE  = 
ORIGINATOR     = 

OBJECT_NAME    = STARLINK-33902
OBJECT_ID      = 2025-225L
CENTER_NAME    = EARTH
REF_FRAME      = TEME
TIME_SYSTEM    = UTC
MEAN_ELEMENT_THEORY = SGP/SGP4

EPOCH          = 2025-10-31T20:00:03.000384
MEAN_MOTION    = 15.55222366
ECCENTRICITY   = .000082
INCLINATION    = 53.1597
RA_OF_ASC_NODE = 46.7160
ARG_OF_PERICENTER = 69.6742
MEAN_ANOMALY   = 314.6069

EPHEMERIS_TYPE = 0
CLASSIFICATION_TYPE = U
NORAD_CAT_ID   = 65920
ELEMENT_SET_NO = 999
REV_AT_EPOCH   = 468
BSTAR          = -.33218E-1
MEAN_MOTION_DOT = -.204064E-1
MEAN_MOTION_DDOT = 0

CCSDS_OMM_VERS = 2.0
CREATION_DATE  = 
ORIGINATOR     = 

OBJECT_NAME    = STARLINK-35530
OBJECT_ID      = 2025-225M
CENTER_NAME    = EARTH
REF_FRAME      = TEME
TIME_SYSTEM    = UTC
MEAN_ELEMENT_THEORY = SGP/SGP4

EPOCH          = 2025-10-31T20:00:03.000384
MEAN_MOTION    = 15.55224873
ECCENTRICITY   = .0000865
INCLINATION    = 53.1595
RA_OF_ASC_NODE = 46.7127
ARG_OF_PERICENTER = 67.8755
MEAN_ANOMALY   = 318.3222

EPHEMERIS_TYPE = 0
CLASSIFICATION_TYPE = U
NORAD_CAT_ID   = 65921
ELEMENT_SET_NO = 999
REV_AT_EPOCH   = 464
BSTAR          = -.33317E-1
MEAN_MOTION_DOT = -.2046266E-1
MEAN_MOTION_DDOT = 0

CCSDS_OMM_VERS = 2.0
CREATION_DATE  = 
ORIGINATOR     = 

OBJECT_NAME    = STARLINK-35544
OBJECT_ID      = 2025-225N
CENTER_NAME    = EARTH
REF_FRAME      = TEME
TIME_SYSTEM    = UTC
MEAN_ELEMENT_THEORY = SGP/SGP4

EPOCH          = 2025-10-31T20:00:03.000384
MEAN_MOTION    = 15.55225387
ECCENTRICITY   = .0000897
INCLINATION    = 53.1599
RA_OF_ASC_NODE = 46.7080
ARG_OF_PERICENTER = 62.5362
MEAN_ANOMALY   = 325.5764

EPHEMERIS_TYPE = 0
CLASSIFICATION_TYPE = U
NORAD_CAT_ID   = 65922
ELEMENT_SET_NO = 999
REV_AT_EPOCH   = 469
BSTAR          = -.333E-1
MEAN_MOTION_DOT = -.2045368E-1
MEAN_MOTION_DDOT = 0

CCSDS_OMM_VERS = 2.0
CREATION_DATE  = 
ORIGINATOR     = 

OBJECT_NAME    = STARLINK-35484
OBJECT_ID      = 2025-225P
CENTER_NAME    = EARTH
REF_FRAME      = TEME
TIME_SYSTEM    = UTC
MEAN_ELEMENT_THEORY = SGP/SGP4

EPOCH          = 2025-10-31T20:00:03.000384
MEAN_MOTION    = 15.55215947
ECCENTRICITY   = .0000852
INCLINATION    = 53.1596
RA_OF_ASC_NODE = 46.7045
ARG_OF_PERICENTER = 66.9427
MEAN_ANOMALY   = 323.0910

EPHEMERIS_TYPE = 0
CLASSIFICATION_TYPE = U
NORAD_CAT_ID   = 65923
ELEMENT_SET_NO = 999
REV_AT_EPOCH   = 469
BSTAR          = -.32995E-1
MEAN_MOTION_DOT = -.2027954E-1
MEAN_MOTION_DDOT = 0

CCSDS_OMM_VERS = 2.0
CREATION_DATE  = 
ORIGINATOR     = 

OBJECT_NAME    = STARLINK-34994
OBJECT_ID      = 2025-225Q
CENTER_NAME    = EARTH
REF_FRAME      = TEME
TIME_SYSTEM    = UTC
MEAN_ELEMENT_THEORY = SGP/SGP4

EPOCH          = 2025-10-31T20:00:03.000384
MEAN_MOTION    = 15.55214840
ECCENTRICITY   = .0000803
INCLINATION    = 53.1597
RA_OF_ASC_NODE = 46.7004
ARG_OF_PERICENTER = 63.6339
MEAN_ANOMALY   = 328.3165

EPHEMERIS_TYPE = 0
CLASSIFICATION_TYPE = U
NORAD_CAT_ID   = 65924
ELEMENT_SET_NO = 999
REV_AT_EPOCH   = 469
BSTAR          = -.3296E-1
MEAN_MOTION_DOT = -.2025967E-1
MEAN_MOTION_DDOT = 0

CCSDS_OMM_VERS = 2.0
CREATION_DATE  = 
ORIGINATOR     = 

OBJECT_NAME    = STARLINK-35458
OBJECT_ID      = 2025-225R
CENTER_NAME    = EARTH
REF_FRAME      = TEME
TIME_SYSTEM    = UTC
MEAN_ELEMENT_THEORY = SGP/SGP4

EPOCH          = 2025-10-31T20:00:03.000384
MEAN_MOTION    = 15.55216770
ECCENTRICITY   = .0000782
INCLINATION    = 53.1596
RA_OF_ASC_NODE = 46.6923
ARG_OF_PERICENTER = 67.8762
MEAN_ANOMALY   = 327.9075

EPHEMERIS_TYPE = 0
CLASSIFICATION_TYPE = U
NORAD_CAT_ID   = 65925
ELEMENT_SET_NO = 999
REV_AT_EPOCH   = 469
BSTAR          = -.33007E-1
MEAN_MOTION_DOT = -.2028641E-1
MEAN_MOTION_DDOT = 0

