STARLINK-35524          
1 65914U 25225E   25304.83336806 -.02029440  00000+0 -33023-1 0  9996
2 65914  53.1597  46.7412 0000710  69.7327 303.0493 15.55216509  4693
STARLINK-35539          
1 65915U 25225F   25304.83336806 -.02391045  00000+0 -56254-1 0  9991
2 65915  53.1593  47.1295 0001431  71.2613 108.8150 15.44901484  4637
STARLINK-35521          
1 65916U 25225G   25304.83336806 -.02031942  00000+0 -33065-1 0  9994
2 65916  53.1602  46.7324 0000795  70.0371 306.5780 15.55218357  4691
STARLINK-35478          
1 65917U 25225H   25304.83336806 -.02048427  00000+0 -33354-1 0  9992
2 65917  53.1601  46.7242 0000893  64.4538 315.9916 15.55226582  4639
STARLINK-35516          
1 65918U 25225J   25304.83336806 -.02046381  00000+0 -33320-1 0  9993
2 65918  53.1598  46.7283 0000819  69.3324 309.1984 15.55224638  4691
STARLINK-35519          
1 65919U 25225K   25304.83336806 -.02041971  00000+0 -33242-1 0  9997
2 65919  53.1593  46.7206 0000862  68.4010 313.9639 15.55222660  4695
STARLINK-33902          
1 65920U 25225L   25304.83336806 -.02040640  00000+0 -33218-1 0  9994
2 65920  53.1597  46.7160 0000820  69.6742 314.6069 15.55222366  4686
STARLINK-35530          
1 65921U 25225M   25304.83336806 -.02046266  00000+0 -33317-1 0  9995
2 65921  53.1595  46.7127 0000865  67.8755 318.3222 15.55224873  4644
STARLINK-35544          
1 65922U 25225N   25304.83336806 -.02045368  00000+0 -33300-1 0  9990
2 65922  53.1599  46.7080 0000897  62.5362 325.5764 15.55225387  4695
STARLINK-35484          
1 65923U 25225P   25304.83336806 -.02027954  00000+0 -32995-1 0  9991
2 65923  53.1596  46.7045 0000852  66.9427 323.0910 15.55215947  4692
STARLINK-34994          
1 65924U 25225Q   25304.83336806 -.02025967  00000+0 -32960-1 0  9996
2 65924  53.1597  46.7004 0000803  63.6339 328.3165 15.55214840  4692
STARLINK-35458          
1 65925U 25225R   25304.83336806 -.02028641  00000+0 -33007-1 0  9992
2 65925  53.1596  46.6923 0000782  67.8762 327.9075 15.55216770  4692
